NORAD_CAT_ID,OBJECT_NAME,OBJECT_TYPE,EPOCH,MEAN_MOTION,ECCENTRICITY,INCLINATION,RA_OF_ASC_NODE,ARG_OF_PERICENTER,MEAN_ANOMALY,BSTAR,MEAN_MOTION_DOT,MEAN_MOTION_DDOT,TLE_LINE0,TLE_LINE1,TLE_LINE2,SEMIMAJOR_AXIS,PERIOD,APOGEE,PERIGEE,DECAYED
54758.0,STARLINK-5464,PAYLOAD,2024-03-06 11:01:15,15.08843815,0.0001629,53.2159,90.9149,79.0704,281.0471,0.00085654,0.00013372,0.0,0 STARLINK-5464,1 54758U 22175A   24066.45920524  .00013372  00000-0  85654-3 0  9992,2 54758  53.2159  90.9149 0001629  79.0704 281.0471 15.08843815 69295,6917.869,95.437,540.861,538.607,0.0
54758.0,STARLINK-5464,PAYLOAD,2024-03-06 18:58:10,15.08854086,0.0001647,53.2158,89.4279,79.4088,280.7089,0.00091751,0.0001435,0.0,0 STARLINK-5464,1 54758U 22175A   24066.79040301  .00014350  00000-0  91751-3 0  9997,2 54758  53.2158  89.4279 0001647  79.4088 280.7089 15.08854086 65907,6917.837,95.437,540.842,538.563,0.0
54758.0,STARLINK-5464,PAYLOAD,2024-03-07 10:52:02,15.08850329,0.0001768,53.2164,86.4554,79.0977,281.0214,0.00043194,6.595e-05,0.0,0 STARLINK-5464,1 54758U 22175A   24067.45280286  .00006595  00000-0  43194-3 0  9999,2 54758  53.2164  86.4554 0001768  79.0977 281.0214 15.08850329 69447,6917.849,95.437,540.937,538.491,0.0
54758.0,STARLINK-5464,PAYLOAD,2024-03-08 01:10:30,15.08846252,0.000173,53.2163,83.7754,90.659,269.46,0.00024176,3.562e-05,0.0,0 STARLINK-5464,1 54758U 22175A   24068.04896200  .00003562  00000-0  24176-3 0  9994,2 54758  53.2163  83.7754 0001730  90.6590 269.4600 15.08846252 66094,6917.861,95.437,540.923,538.529,0.0
54758.0,STARLINK-5464,PAYLOAD,2024-03-08 07:32:03,15.08841393,0.0001589,53.216,82.5874,91.1415,268.9759,0.00019813,2.867e-05,0.0,0 STARLINK-5464,1 54758U 22175A   24068.31392372  .00002867  00000-0  19813-3 0  9994,2 54758  53.2160  82.5874 0001589  91.1415 268.9759 15.08841393 69571,6917.876,95.437,540.84,538.642,0.0
54758.0,STARLINK-5464,PAYLOAD,2024-03-09 07:22:50,15.08840653,0.0001594,53.2172,78.1267,93.1096,267.0078,5.0564e-05,5.17e-06,0.0,0 STARLINK-5464,1 54758U 22175A   24069.30752438  .00000517  00000-0  50564-4 0  9996,2 54758  53.2172  78.1267 0001594  93.1096 267.0078 15.08840653 66281,6917.878,95.438,540.846,538.641,0.0
54758.0,STARLINK-5464,PAYLOAD,2024-03-09 16:55:08,15.08843592,0.0001584,53.2174,76.343,92.4579,267.6595,5.9869e-05,6.65e-06,0.0,0 STARLINK-5464,1 54758U 22175A   24069.70496105  .00000665  00000-0  59869-4 0  9997,2 54758  53.2174  76.3430 0001584  92.4579 267.6595 15.08843592 69785,6917.869,95.437,540.83,538.639,0.0
54758.0,STARLINK-5464,PAYLOAD,2024-03-10 05:38:14,15.08813871,0.0001774,53.2187,73.9666,95.7853,264.3342,0.00031989,4.803e-05,0.0,0 STARLINK-5464,1 54758U 22175A   24070.23489519  .00004803  00000-0  31989-3 0  9998,2 54758  53.2187  73.9666 0001774  95.7853 264.3342 15.08813871 66424,6917.96,95.439,541.053,538.598,0.0
54758.0,STARLINK-5464,PAYLOAD,2024-03-10 07:13:37,15.08835127,0.0001681,53.2184,73.6715,102.6237,257.4943,5.5675e-05,5.98e-06,0.0,0 STARLINK-5464,1 54758U 22175A   24070.30112782  .00000598  00000-0  55675-4 0  9997,2 54758  53.2184  73.6715 0001681 102.6237 257.4943 15.08835127 66433,6917.895,95.438,540.923,538.597,0.0
54758.0,STARLINK-5464,PAYLOAD,2024-03-10 16:45:55,15.08842819,0.0001488,53.2176,71.8835,93.1008,267.0155,0.0001161,1.56e-05,0.0,0 STARLINK-5464,1 54758U 22175A   24070.69856179  .00001560  00000-0  11610-3 0  9994,2 54758  53.2176  71.8835 0001488  93.1008 267.0155 15.08842819 66496,6917.872,95.437,540.766,538.707,0.0
54758.0,STARLINK-5464,PAYLOAD,2024-03-11 05:29:01,15.08834989,0.0001724,53.2189,69.507,102.8377,257.2808,6.7914e-05,7.93e-06,0.0,0 STARLINK-5464,1 54758U 22175A   24071.22848929  .00000793  00000-0  67914-4 0  9994,2 54758  53.2189  69.5070 0001724 102.8377 257.2808 15.08834989 66579,6917.896,95.438,540.953,538.568,0.0
54758.0,STARLINK-5464,PAYLOAD,2024-03-11 07:04:24,15.08835575,0.0001715,53.219,69.2106,106.7713,253.3468,7.9145e-05,9.72e-06,0.0,0 STARLINK-5464,1 54758U 22175A   24071.29472877  .00000972  00000-0  79145-4 0  9994,2 54758  53.2190  69.2106 0001715 106.7713 253.3468 15.08835575 70021,6917.894,95.438,540.945,538.572,0.0
54758.0,STARLINK-5464,PAYLOAD,2024-03-11 16:36:42,15.08846326,0.0001585,53.2181,67.4243,93.4145,266.7029,0.00012469,1.697e-05,0.0,0 STARLINK-5464,1 54758U 22175A   24071.69216099  .00001697  00000-0  12469-3 0  9990,2 54758  53.2181  67.4243 0001585  93.4145 266.7029 15.08846326 66649,6917.861,95.437,540.823,538.63,0.0
54758.0,STARLINK-5464,PAYLOAD,2024-03-12 05:19:48,15.08832964,0.0001689,53.2195,65.0474,88.6073,271.5113,5.0049e-05,5.08e-06,0.0,0 STARLINK-5464,1 54758U 22175A   24072.22209348  .00000508  00000-0  50049-4 0  9996,2 54758  53.2195  65.0474 0001689  88.6073 271.5113 15.08832964 66725,6917.902,95.438,540.935,538.598,0.0
54758.0,STARLINK-5464,PAYLOAD,2024-03-12 16:27:30,15.08845498,0.0001538,53.2186,62.9613,84.3257,275.791,6.507e-05,7.48e-06,0.0,0 STARLINK-5464,1 54758U 22175A   24072.68576476  .00000748  00000-0  65070-4 0  9991,2 54758  53.2186  62.9613 0001538  84.3257 275.7910 15.08845498 66790,6917.864,95.437,540.793,538.665,0.0
54758.0,STARLINK-5464,PAYLOAD,2024-03-13 05:10:35,15.08835048,0.0001593,53.2188,60.5815,78.2301,281.887,1.1053e-05,-1.12e-06,0.0,0 STARLINK-5464,1 54758U 22175A   24073.21569442 -.00000112  00000-0  11053-4 0  9994,2 54758  53.2188  60.5815 0001593  78.2301 281.8870 15.08835048 66875,6917.896,95.438,540.863,538.659,0.0
54758.0,STARLINK-5464,PAYLOAD,2024-03-13 06:45:59,15.08837211,0.0001545,53.2181,60.2857,83.246,276.8708,-1.323e-05,-4.99e-06,0.0,0 STARLINK-5464,1 54758U 22175A   24073.28193379 -.00000499  00000-0 -13230-4 0  9991,2 54758  53.2181  60.2857 0001545  83.2460 276.8708 15.08837211 70323,6917.889,95.438,540.823,538.685,0.0
54758.0,STARLINK-5464,PAYLOAD,2024-03-13 16:18:17,15.08848276,0.0001579,53.2189,58.5021,83.8896,276.2276,6.4385e-05,7.37e-06,0.0,0 STARLINK-5464,1 54758U 22175A   24073.67936436  .00000737  00000-0  64385-4 0  9993,2 54758  53.2189  58.5021 0001579  83.8896 276.2276 15.08848276 66940,6917.855,95.437,540.812,538.628,0.0
54758.0,STARLINK-5464,PAYLOAD,2024-03-13 22:39:49,15.08840204,0.0001626,53.2186,57.3125,86.6614,273.4564,0.00012332,1.675e-05,0.0,0 STARLINK-5464,1 54758U 22175A   24073.94432803  .00001675  00000-0  12332-3 0  9998,2 54758  53.2186  57.3125 0001626  86.6614 273.4564 15.08840204 70421,6917.88,95.438,540.87,538.62,0.0
54758.0,STARLINK-5464,PAYLOAD,2024-03-14 05:01:22,15.08844928,0.0001462,53.2178,56.1235,91.9825,268.1334,0.00011196,1.495e-05,0.0,0 STARLINK-5464,1 54758U 22175A   24074.20928575  .00001495  00000-0  11196-3 0  9991,2 54758  53.2178  56.1235 0001462  91.9825 268.1334 15.08844928 70469,6917.865,95.437,540.742,538.719,0.0
54758.0,STARLINK-5464,PAYLOAD,2024-03-14 22:30:36,15.08839391,0.0001279,53.2168,52.8518,88.4388,271.6751,0.00013734,1.899e-05,0.0,0 STARLINK-5464,1 54758U 22175A   24074.93792685  .00001899  00000-0  13734-3 0  9990,2 54758  53.2168  52.8518 0001279  88.4388 271.6751 15.08839391 70578,6917.882,95.438,540.632,538.862,0.0
54758.0,STARLINK-5464,PAYLOAD,2024-03-15 04:52:09,15.08836943,0.0001411,53.2173,51.6617,89.9547,270.1606,7.1101e-05,8.44e-06,0.0,0 STARLINK-5464,1 54758U 22175A   24075.20289064  .00000844  00000-0  71101-4 0  9995,2 54758  53.2173  51.6617 0001411  89.9547 270.1606 15.08836943 67177,6917.89,95.438,540.731,538.779,0.0
54758.0,STARLINK-5464,PAYLOAD,2024-03-15 08:02:55,15.08840066,0.0001395,53.2176,51.0669,90.973,269.1422,3.7495e-05,3.09e-06,0.0,0 STARLINK-5464,1 54758U 22175A   24075.33536956  .00000309  00000-0  37495-4 0  9998,2 54758  53.2176  51.0669 0001395  90.9730 269.1422 15.08840066 70638,6917.88,95.438,540.71,538.78,0.0
54758.0,STARLINK-5464,PAYLOAD,2024-03-16 07:53:42,15.08841416,0.0001375,53.2178,46.6061,91.8494,268.2656,1.3154e-05,-7.9e-07,0.0,0 STARLINK-5464,1 54758U 22175A   24076.32896852 -.00000079  00000-0  13154-4 0  9993,2 54758  53.2178  46.6061 0001375  91.8494 268.2656 15.08841416 67344,6917.876,95.437,540.692,538.79,0.0
54758.0,STARLINK-5464,PAYLOAD,2024-03-17 07:44:30,15.08836439,0.0001359,53.2185,42.1451,98.2927,261.8219,4.9823e-05,5.05e-06,0.0,0 STARLINK-5464,1 54758U 22175A   24077.32257156  .00000505  00000-0  49823-4 0  9997,2 54758  53.2185  42.1451 0001359  98.2927 261.8219 15.08836439 70932,6917.891,95.438,540.696,538.816,0.0
54758.0,STARLINK-5464,PAYLOAD,2024-03-17 22:02:58,15.08836228,0.0001365,53.2188,39.4687,98.351,261.7637,4.272e-05,3.92e-06,0.0,0 STARLINK-5464,1 54758U 22175A   24077.91873311  .00000392  00000-0  42720-4 0  9992,2 54758  53.2188  39.4687 0001365  98.3510 261.7637 15.08836228 71021,6917.892,95.438,540.701,538.813,0.0
54758.0,STARLINK-5464,PAYLOAD,2024-03-18 04:24:31,15.08834982,0.0001357,53.2189,38.2793,99.2807,260.8339,2.6083e-05,1.27e-06,0.0,0 STARLINK-5464,1 54758U 22175A   24078.18369488  .00000127  00000-0  26083-4 0  9997,2 54758  53.2189  38.2793 0001357  99.2807 260.8339 15.08834982 71065,6917.896,95.438,540.699,538.822,0.0
54758.0,STARLINK-5464,PAYLOAD,2024-03-19 02:39:55,15.08839202,0.0001327,53.2187,34.1167,97.0514,263.0629,6.5353e-05,7.52e-06,0.0,0 STARLINK-5464,1 54758U 22175A   24079.11105339  .00000752  00000-0  65353-4 0  9991,2 54758  53.2187  34.1167 0001327  97.0514 263.0629 15.08839202 67760,6917.883,95.438,540.666,538.83,0.0
54758.0,STARLINK-5464,PAYLOAD,2024-03-20 05:41:27,15.08846237,0.0001338,53.219,29.0602,98.8505,261.2639,0.00013695,1.893e-05,0.0,0 STARLINK-5464,1 54758U 22175A   24080.23712677  .00001893  00000-0  13695-3 0  9993,2 54758  53.2190  29.0602 0001338  98.8505 261.2639 15.08846237 67938,6917.861,95.437,540.652,538.801,0.0
54758.0,STARLINK-5464,PAYLOAD,2024-03-21 03:56:52,15.08841258,0.0001176,53.2182,24.8981,107.9303,252.1817,1.0402e-05,-1.22e-06,0.0,0 STARLINK-5464,1 54758U 22175A   24081.16449310 -.00000122  00000-0  10402-4 0  9996,2 54758  53.2182  24.8981 0001176 107.9303 252.1817 15.08841258 68071,6917.877,95.437,540.555,538.928,0.0
